ERS-1                   
1 21574U 91050A   26085.51893193  .00000298  00000+0  10977-3 0  9999
2 21574  98.7869 104.1758 0032573 150.6960 209.6062 14.39461613818157
ARIANE 40 R/B           
1 21610U 91050F   26085.73788052  .00000281  00000+0  96621-4 0  9994
2 21610  98.1977 137.3317 0003651  42.8634 317.2841 14.42905564821456
INTERCOSMOS 25          
1 21819U 91086A   26085.58000559  .00001361  00000+0  25958-3 0  9990
2 21819  82.6019 299.7977 1486615  80.5409 296.0044 12.12055207498737
SL-8 R/B                
1 21876U 92008B   26085.89294981  .00000031  00000+0  15606-4 0  9999
2 21876  82.9229 254.9771 0035975  86.9205  23.3391 13.75969571711780
SL-8 R/B                
1 21938U 92020B   26085.41209479  .00000028  00000+0  13639-4 0  9998
2 21938  82.9309 141.3460 0027679 249.8780 121.0421 13.75550460703438
USA 81                  
1 21949U 92023A   26085.56434170  .00000163  00000+0  52994-4 0  9994
2 21949  85.0051 121.7033 0001874  68.1594 291.9798 14.32373245 97203
COSMOS 2219             
1 22219U 92076A   26085.92255089 -.00000234  00000+0 -98250-4 0  9999
2 22219  71.0627 342.0476 0018012 181.9265 178.1792 14.14091479720814
SL-16 R/B               
1 22220U 92076B   26085.66027576 -.00000001  00000+0  23477-4 0  9990
2 22220  71.0001 152.6285 0010653  64.5773  97.4300 14.16863960724230
COSMOS 2221             
1 22236U 92080A   26085.89145076  .00002466  00000+0  21568-3 0  9997
2 22236  82.5007 262.5983 0015395 131.4419 228.8128 14.96269448783361
SL-16 R/B               
1 22285U 92093B   26085.91233868  .00000268  00000+0  16174-3 0  9990
2 22285  71.0232 328.1136 0006437 276.8392  83.1998 14.15453508715598
COSMOS 2228             
1 22286U 92094A   26085.82949012  .00002563  00000+0  21848-3 0  9991
2 22286  82.5183 220.8990 0016739 241.9796 117.9734 14.97275210778623
SL-16 R/B               
1 22566U 93016B   26085.67175404 -.00000120  00000+0 -37174-4 0  9995
2 22566  71.0078 179.5163 0012341 292.2002  67.7812 14.15305436704572
